[{"OBJECT_NAME":"YAOGAN-30 08B","OBJECT_ID":"2020-076B","EPOCH":"2026-03-09T22:42:15.045408","MEAN_MOTION":15.02083021,"ECCENTRICITY":0.00018813,"INCLINATION":34.9955,"RA_OF_ASC_NODE":335.6171,"ARG_OF_PERICENTER":239.6156,"MEAN_ANOMALY":120.4366,"EPHEMERIS_TYPE":0,"CLASSIFICATION_TYPE":"U","NORAD_CAT_ID":46808,"ELEMENT_SET_NO":999,"REV_AT_EPOCH":29329,"BSTAR":0.00029214643,"MEAN_MOTION_DOT":3.888e-5,"MEAN_MOTION_DDOT":0},{"OBJECT_NAME":"STARLINK-5877","OBJECT_ID":"2023-058AP","EPOCH":"2026-03-09T23:06:40.944960","MEAN_MOTION":15.05648727,"ECCENTRICITY":0.00017819,"INCLINATION":97.6041,"RA_OF_ASC_NODE":71.4255,"ARG_OF_PERICENTER":80.0636,"MEAN_ANOMALY":280.0792,"EPHEMERIS_TYPE":0,"CLASSIFICATION_TYPE":"U","NORAD_CAT_ID":56354,"ELEMENT_SET_NO":999,"REV_AT_EPOCH":15823,"BSTAR":5.2843646e-5,"MEAN_MOTION_DOT":7.02e-6,"MEAN_MOTION_DDOT":0}]
